[{"OBJECT_NAME":"SAOCOM 1A","OBJECT_ID":"2018-076A","EPOCH":"2026-03-26T20:10:35.120064","MEAN_MOTION":14.82158822,"ECCENTRICITY":0.0001487,"INCLINATION":97.8907,"RA_OF_ASC_NODE":273.7712,"ARG_OF_PERICENTER":84.5804,"MEAN_ANOMALY":275.5579,"EPHEMERIS_TYPE":0,"CLASSIFICATION_TYPE":"U","NORAD_CAT_ID":43641,"ELEMENT_SET_NO":999,"REV_AT_EPOCH":40390,"BSTAR":5.4208e-5,"MEAN_MOTION_DOT":3.79e-6,"MEAN_MOTION_DDOT":0},{"OBJECT_NAME":"H-2A R/B","OBJECT_ID":"2018-084L","EPOCH":"2026-03-26T13:01:47.196768","MEAN_MOTION":15.42046506,"ECCENTRICITY":0.0023967,"INCLINATION":98.8711,"RA_OF_ASC_NODE":306.5404,"ARG_OF_PERICENTER":326.7333,"MEAN_ANOMALY":33.2402,"EPHEMERIS_TYPE":0,"CLASSIFICATION_TYPE":"U","NORAD_CAT_ID":43682,"ELEMENT_SET_NO":999,"REV_AT_EPOCH":40837,"BSTAR":0.00044617,"MEAN_MOTION_DOT":0.00019154,"MEAN_MOTION_DDOT":0},{"OBJECT_NAME":"SAOCOM 1B","OBJECT_ID":"2020-059A","EPOCH":"2026-03-26T19:18:20.774304","MEAN_MOTION":14.82154351,"ECCENTRICITY":0.0001506,"INCLINATION":97.8906,"RA_OF_ASC_NODE":272.8332,"ARG_OF_PERICENTER":87.6554,"MEAN_ANOMALY":272.4831,"EPHEMERIS_TYPE":0,"CLASSIFICATION_TYPE":"U","NORAD_CAT_ID":46265,"ELEMENT_SET_NO":999,"REV_AT_EPOCH":30128,"BSTAR":0.00010683,"MEAN_MOTION_DOT":7.98e-6,"MEAN_MOTION_DDOT":0},{"OBJECT_NAME":"CSS (TIANHE)","OBJECT_ID":"2021-035A","EPOCH":"2026-03-26T11:26:24.884160","MEAN_MOTION":15.6151636,"ECCENTRICITY":0.0004375,"INCLINATION":41.4668,"RA_OF_ASC_NODE":105.9518,"ARG_OF_PERICENTER":27.8564,"MEAN_ANOMALY":332.2509,"EPHEMERIS_TYPE":0,"CLASSIFICATION_TYPE":"U","NORAD_CAT_ID":48274,"ELEMENT_SET_NO":999,"REV_AT_EPOCH":28023,"BSTAR":0.00025348,"MEAN_MOTION_DOT":0.00022078,"MEAN_MOTION_DDOT":0},{"OBJECT_NAME":"COSMOS 2550","OBJECT_ID":"2021-056A","EPOCH":"2026-03-26T20:42:03.699648","MEAN_MOTION":15.33832534,"ECCENTRICITY":0.000832,"INCLINATION":67.1433,"RA_OF_ASC_NODE":348.9365,"ARG_OF_PERICENTER":269.2591,"MEAN_ANOMALY":90.761,"EPHEMERIS_TYPE":0,"CLASSIFICATION_TYPE":"U","NORAD_CAT_ID":48865,"ELEMENT_SET_NO":999,"REV_AT_EPOCH":26609,"BSTAR":2.8271e-8,"MEAN_MOTION_DOT":-1.91e-6,"MEAN_MOTION_DDOT":0},{"OBJECT_NAME":"CZ-2C R/B","OBJECT_ID":"2022-058K","EPOCH":"2026-03-26T19:12:08.863776","MEAN_MOTION":15.55455273,"ECCENTRICITY":0.0041479,"INCLINATION":50.1867,"RA_OF_ASC_NODE":230.1901,"ARG_OF_PERICENTER":274.0304,"MEAN_ANOMALY":85.5926,"EPHEMERIS_TYPE":0,"CLASSIFICATION_TYPE":"U","NORAD_CAT_ID":52794,"ELEMENT_SET_NO":999,"REV_AT_EPOCH":21279,"BSTAR":0.00050425,"MEAN_MOTION_DOT":0.0003612,"MEAN_MOTION_DDOT":0},{"OBJECT_NAME":"CZ-2C R/B","OBJECT_ID":"2022-132E","EPOCH":"2026-03-26T11:16:30.063360","MEAN_MOTION":15.63410774,"ECCENTRICITY":0.0018219,"INCLINATION":97.2963,"RA_OF_ASC_NODE":89.316,"ARG_OF_PERICENTER":36.9565,"MEAN_ANOMALY":323.2945,"EPHEMERIS_TYPE":0,"CLASSIFICATION_TYPE":"U","NORAD_CAT_ID":54039,"ELEMENT_SET_NO":999,"REV_AT_EPOCH":19299,"BSTAR":0.00049499,"MEAN_MOTION_DOT":0.00046034,"MEAN_MOTION_DDOT":0},{"OBJECT_NAME":"GSLV R/B","OBJECT_ID":"2022-138AN","EPOCH":"2026-03-26T05:36:17.406720","MEAN_MOTION":14.96880005,"ECCENTRICITY":0.0024097,"INCLINATION":87.3864,"RA_OF_ASC_NODE":160.8245,"ARG_OF_PERICENTER":92.1088,"MEAN_ANOMALY":268.2903,"EPHEMERIS_TYPE":0,"CLASSIFICATION_TYPE":"U","NORAD_CAT_ID":54149,"ELEMENT_SET_NO":999,"REV_AT_EPOCH":18640,"BSTAR":0.00021043,"MEAN_MOTION_DOT":2.455e-5,"MEAN_MOTION_DDOT":0},{"OBJECT_NAME":"XRISM","OBJECT_ID":"2023-137A","EPOCH":"2026-03-26T14:39:56.371968","MEAN_MOTION":15.11688606,"ECCENTRICITY":0.0007938,"INCLINATION":31.0013,"RA_OF_ASC_NODE":174.1979,"ARG_OF_PERICENTER":209.6422,"MEAN_ANOMALY":150.3768,"EPHEMERIS_TYPE":0,"CLASSIFICATION_TYPE":"U","NORAD_CAT_ID":57800,"ELEMENT_SET_NO":999,"REV_AT_EPOCH":14035,"BSTAR":0.00032341,"MEAN_MOTION_DOT":5.744e-5,"MEAN_MOTION_DDOT":0},{"OBJECT_NAME":"ACS3","OBJECT_ID":"2024-077B","EPOCH":"2026-03-26T18:34:42.525984","MEAN_MOTION":13.90365672,"ECCENTRICITY":0.0071606,"INCLINATION":97.1977,"RA_OF_ASC_NODE":23.0463,"ARG_OF_PERICENTER":37.1168,"MEAN_ANOMALY":323.4917,"EPHEMERIS_TYPE":0,"CLASSIFICATION_TYPE":"U","NORAD_CAT_ID":59588,"ELEMENT_SET_NO":999,"REV_AT_EPOCH":9657,"BSTAR":0.013906,"MEAN_MOTION_DOT":0.00017622,"MEAN_MOTION_DDOT":0},{"OBJECT_NAME":"SZ-21 MODULE","OBJECT_ID":"2025-246C","EPOCH":"2026-03-26T10:18:41.505984","MEAN_MOTION":15.69816747,"ECCENTRICITY":0.0001204,"INCLINATION":41.4744,"RA_OF_ASC_NODE":100.212,"ARG_OF_PERICENTER":208.6321,"MEAN_ANOMALY":151.4455,"EPHEMERIS_TYPE":0,"CLASSIFICATION_TYPE":"U","NORAD_CAT_ID":66515,"ELEMENT_SET_NO":999,"REV_AT_EPOCH":2070,"BSTAR":0.00029374,"MEAN_MOTION_DOT":0.00035932,"MEAN_MOTION_DDOT":0}]
